H1 CPF 01  gfz 2021 06 18 12  6692 terrasarx 
H2 0702601  6201 31698    2021 06 18 12 59 42 2021 06 23 00 00 42   120 1 1  0 0 0
H9
10 0 59387  15822.000000  0    -932694.274  -1384329.015  -6690000.558
10 0 59387  15942.000000  0   -1758912.841  -1702367.515  -6445837.147
10 0 59387  16062.000000  0   -2559835.217  -1976670.063  -6089182.425
10 0 59387  16182.000000  0   -3320749.063  -2203029.785  -5626182.778
10 0 59387  16302.000000  0   -4027541.083  -2378310.150  -5064835.944
10 0 59387  16422.000000  0   -4666960.956  -2500489.339  -4414864.554
10 0 59387  16542.000000  0   -5226874.035  -2568682.092  -3687558.328
10 0 59387  16662.000000  0   -5696499.217  -2583138.821  -2895587.166
10 0 59387  16782.000000  0   -6066626.300  -2545221.011  -2052786.048
10 0 59387  16902.000000  0   -6329806.765  -2457353.514  -1173915.607
10 0 59387  17022.000000  0   -6480513.428  -2322954.238   -274401.930
10 0 59387  17142.000000  0   -6515263.655  -2146342.548    629939.194
10 0 59387  17262.000000  0   -6432703.189  -1932628.261   1523188.125
10 0 59387  17382.000000  0   -6233646.524  -1687584.163   2389611.388
10 0 59387  17502.000000  0   -5921072.352  -1417505.518   3213947.536
10 0 59387  17622.000000  0   -5500076.801  -1129059.798   3981683.515
10 0 59387  17742.000000  0   -4977782.189   -829130.435   4679316.404
10 0 59387  17862.000000  0   -4363206.308   -524659.357   5294590.922
10 0 59387  17982.000000  0   -3667098.684   -222492.212   5816713.124
10 0 59387  18102.000000  0   -2901743.670     70771.342   6236537.077
10 0 59387  18222.000000  0   -2080735.507    348918.082   6546719.480
10 0 59387  18342.000000  0   -1218731.288    606248.696   6741841.944
10 0 59387  18462.000000  0    -331186.344    837692.089   6818499.684
10 0 59387  18582.000000  0     565923.047   1038903.679   6775356.476
10 0 59387  18702.000000  0    1456386.140   1206346.401   6613166.440
10 0 59387  18822.000000  0    2324049.686   1337353.288   6334761.644
10 0 59387  18942.000000  0    3153110.286   1430169.936   5945006.091
10 0 59387  19062.000000  0    3928404.382   1483976.704   5450716.163
10 0 59387  19182.000000  0    4635688.437   1498890.131   4860546.466
10 0 59387  19302.000000  0    5261905.949   1475944.401   4184846.041
10 0 59387  19422.000000  0    5795438.999   1417052.301   3435481.651
10 0 59387  19542.000000  0    6226332.894   1324946.693   2625629.273
10 0 59387  19662.000000  0    6546490.914   1203102.217   1769542.328
10 0 59387  19782.000000  0    6749835.660   1055641.200    882296.582
10 0 59387  19902.000000  0    6832430.236    887224.626    -20482.022
10 0 59387  20022.000000  0    6792558.094    702931.184   -922901.037
10 0 59387  20142.000000  0    6630756.302    508127.349  -1809091.028
10 0 59387  20262.000000  0    6349803.363    308331.654  -2663491.921
10 0 59387  20382.000000  0    5954663.355    109077.296  -3471131.850
10 0 59387  20502.000000  0    5452387.281    -84223.505  -4217892.676
10 0 59387  20622.000000  0    4851973.653   -266409.970  -4890756.218
10 0 59387  20742.000000  0    4164194.168   -432694.602  -5478025.148
10 0 59387  20862.000000  0    3401390.805   -578774.286  -5969518.114
10 0 59387  20982.000000  0    2577246.588   -700929.052  -6356736.933
10 0 59387  21102.000000  0    1706535.077   -796105.110  -6633001.632
10 0 59387  21222.000000  0     804856.061   -861982.145  -6793554.449
10 0 59387  21342.000000  0    -111640.950   -897023.682  -6835633.898
10 0 59387  21462.000000  0   -1026540.388   -900508.846  -6758516.167
10 0 59387  21582.000000  0   -1923447.446   -872546.471  -6563526.702
10 0 59387  21702.000000  0   -2786275.720   -814070.357  -6254019.259
10 0 59387  21822.000000  0   -3599528.711   -726816.499  -5835323.585
10 0 59387  21942.000000  0   -4348575.174   -613282.458  -5314664.930
10 0 59387  22062.000000  0   -5019914.239   -476668.874  -4701050.264
10 0 59387  22182.000000  0   -5601423.128   -320804.743  -4005124.027
10 0 59387  22302.000000  0   -6082585.584   -150057.363  -3238994.359
10 0 59387  22422.000000  0   -6454693.700     30772.269  -2416029.313
10 0 59387  22542.000000  0   -6711018.806    216565.433  -1550628.063
10 0 59387  22662.000000  0   -6846947.021    402011.778   -657968.765
10 0 59387  22782.000000  0   -6860073.267    581740.868    246263.487
10 0 59387  22902.000000  0   -6750249.883    750457.024   1146158.704
10 0 59387  23022.000000  0   -6519592.401    903073.515   2025869.536
10 0 59387  23142.000000  0   -6172439.511   1034842.674   2869899.911
10 0 59387  23262.000000  0   -5715267.137   1141478.551   3663386.878
10 0 59387  23382.000000  0   -5156559.359   1219268.732   4392368.454
10 0 59387  23502.000000  0   -4506641.197   1265172.840   5044031.887
10 0 59387  23622.000000  0   -3777477.908   1276904.974   5606938.153
10 0 59387  23742.000000  0   -2982446.216   1252998.932   6071220.067
10 0 59387  23862.000000  0   -2136081.306   1192854.559   6428751.708
10 0 59387  23982.000000  0   -1253803.958   1096764.985   6673285.011
10 0 59387  24102.000000  0    -351635.794    965923.253   6800551.461
10 0 59387  24222.000000  0     554091.769    802409.017   6808331.175
10 0 59387  24342.000000  0    1447032.014    609155.342   6696488.943
10 0 59387  24462.000000  0    2311116.583    389896.542   6466976.520
10 0 59387  24582.000000  0    3130843.871    149097.303   6123801.620
10 0 59387  24702.000000  0    3891559.008   -108136.075   5672962.878
10 0 59387  24822.000000  0    4579719.150   -376160.792   5122350.338
10 0 59387  24942.000000  0    5183140.197   -648916.839   4481613.540
10 0 59387  25062.000000  0    5691220.399   -920058.788   3761997.540
10 0 59387  25182.000000  0    6095136.604  -1183097.394   2976149.118
10 0 59387  25302.000000  0    6388007.416  -1431547.626   2137894.253
10 0 59387  25422.000000  0    6565019.198  -1659079.004   1261991.922
10 0 59387  25542.000000  0    6623511.567  -1859665.733    363869.205
10 0 59387  25662.000000  0    6563020.542  -2027733.404   -540658.602
10 0 59387  25782.000000  0    6385275.769  -2158295.823  -1435675.913
10 0 59387  25902.000000  0    6094154.175  -2247080.630  -2305455.590
10 0 59387  26022.000000  0    5695589.814  -2290639.429  -3134742.438
10 0 59387  26142.000000  0    5197443.987  -2286439.904  -3909024.244
10 0 59387  26262.000000  0    4609340.570  -2232938.380  -4614785.928
10 0 59387  26382.000000  0    3942469.742  -2129631.442  -5239742.949
10 0 59387  26502.000000  0    3209364.493  -1977085.473  -5773048.247
10 0 59387  26622.000000  0    2423658.243  -1776943.692  -6205469.686
10 0 59387  26742.000000  0    1599828.991  -1531911.252  -6529539.757
10 0 59387  26862.000000  0     752931.152  -1245718.435  -6739674.181
10 0 59387  26982.000000  0    -101676.859   -923063.800  -6832257.629
10 0 59387  27102.000000  0    -948605.800   -569537.739  -6805698.688
10 0 59387  27222.000000  0   -1772706.095   -191527.772  -6660454.413
10 0 59387  27342.000000  0   -2559332.914    203894.281  -6399022.549
10 0 59387  27462.000000  0   -3294600.204    609100.400  -6025902.661
10 0 59387  27582.000000  0   -3965622.302   1016048.962  -5547527.952
10 0 59387  27702.000000  0   -4560740.888   1416439.324  -4972165.202
10 0 59387  27822.000000  0   -5069732.030   1801877.187  -4309784.374
10 0 59387  27942.000000  0   -5483989.833   2164047.999  -3571895.954
10 0 59387  28062.000000  0   -5796681.205   2494892.785  -2771359.477
10 0 59387  28182.000000  0   -6002870.010   2786784.158  -1922165.315
10 0 59387  28302.000000  0   -6099606.016   3032698.347  -1039191.933
10 0 59387  28422.000000  0   -6085975.511   3226379.038   -137942.929
10 0 59387  28542.000000  0   -5963111.702   3362487.902    765731.411
10 0 59387  28662.000000  0   -5734162.480   3436737.508   1655921.809
10 0 59387  28782.000000  0   -5404216.996   3446003.890   2516949.037
10 0 59387  28902.000000  0   -4980193.446   3388415.129   3333648.298
10 0 59387  29022.000000  0   -4470691.274   3263413.885   4091643.614
10 0 59387  29142.000000  0   -3885810.527   3071791.890   4777605.426
10 0 59387  29262.000000  0   -3236945.154   2815696.559   5379485.525
10 0 59387  29382.000000  0   -2536554.259   2498610.746   5886728.015
10 0 59387  29502.000000  0   -1797915.936   2125304.535   6290450.566
10 0 59387  29622.000000  0   -1034870.053   1701760.877   6583594.091
10 0 59387  29742.000000  0    -261556.439   1235077.272   6761038.391
10 0 59387  29862.000000  0     507846.662    733345.061   6819686.167
10 0 59387  29982.000000  0    1259381.904    205508.799   6758513.452
10 0 59387  30102.000000  0    1979564.725   -338792.424   6578586.406
10 0 59387  30222.000000  0    2655624.482   -889400.412   6283044.754
10 0 59387  30342.000000  0    3275731.611  -1435826.489   5877051.191
10 0 59387  30462.000000  0    3829207.940  -1967450.890   5367706.922
10 0 59387  30582.000000  0    4306714.646  -2473729.296   4763932.557
10 0 59387  30702.000000  0    4700415.259  -2944402.855   4076318.221
10 0 59387  30822.000000  0    5004111.618  -3369708.767   3316942.480
10 0 59387  30942.000000  0    5213348.744  -3740585.082   2499160.919
10 0 59387  31062.000000  0    5325484.181  -4048864.800   1637368.820
10 0 59387  31182.000000  0    5339720.893  -4287455.750    746743.637
10 0 59387  31302.000000  0    5257103.539  -4450500.511   -157029.024
10 0 59387  31422.000000  0    5080477.403  -4533513.112  -1058040.034
10 0 59387  31542.000000  0    4814410.428  -4533487.603  -1940445.997
10 0 59387  31662.000000  0    4465080.709  -4448976.393  -2788755.861
10 0 59387  31782.000000  0    4040132.827  -4280136.594  -3588108.299
10 0 59387  31902.000000  0    3548507.243  -4028743.590  -4324534.615
10 0 59387  32022.000000  0    3000247.303  -3698171.937  -4985201.317
10 0 59387  32142.000000  0    2406288.719  -3293345.190  -5558628.200
10 0 59387  32262.000000  0    1778238.204  -2820656.680  -6034877.899
99
